OBJECT_NAME,OBJECT_ID,EPOCH,MEAN_MOTION,ECCENTRICITY,INCLINATION,RA_OF_ASC_NODE,ARG_OF_PERICENTER,MEAN_ANOMALY,EPHEMERIS_TYPE,CLASSIFICATION_TYPE,NORAD_CAT_ID,ELEMENT_SET_NO,REV_AT_EPOCH,BSTAR,MEAN_MOTION_DOT,MEAN_MOTION_DDOT
OSCAR 7 (AO-7),1974-089B,2026-06-16T08:00:53.166816,12.53698098,.00125631,101.9900,180.5717,131.7139,239.8615,0,U,7530,999,36041,.34184474E-4,-.41E-6,0
PHASE 3B (AO-10),1983-058B,2026-06-15T10:15:11.279232,2.05868643,.60114563,25.9108,219.8563,115.1838,317.1369,0,U,14129,999,29545,0,.161E-5,0
UOSAT 2 (UO-11),1984-021B,2026-06-16T06:45:38.150784,14.90781391,.00075535,97.8058,132.8664,175.4457,184.6832,0,U,14781,999,25699,.10480113E-3,.975E-5,0
LUSAT (LO-19),1990-005G,2026-06-16T03:15:01.353312,14.34122929,.00110645,98.8851,188.9121,204.3265,155.7398,0,U,20442,999,90224,.50454127E-4,.94E-6,0
EYESAT A (AO-27),1993-061C,2026-06-16T03:51:32.183424,14.30942024,.00095326,98.6881,234.5747,102.3705,257.8545,0,U,22825,999,70685,.50436961E-4,.88E-6,0
ITAMSAT (IO-26),1993-061D,2026-06-16T00:01:00.641568,14.31368850,.00100961,98.6828,234.3320,88.1549,272.0790,0,U,22826,999,70714,.4865967E-4,.84E-6,0
RADIO ROSTO (RS15),1994-085A,2026-06-16T01:14:27.917664,11.27583453,.01559192,64.8179,305.0526,4.0859,356.1299,0,U,23439,999,29577,-.32993386E-3,-.54E-6,0
JAS-2 (FO-29),1996-046B,2026-06-15T19:58:41.761056,13.53274294,.03508846,98.5240,15.8902,99.9379,264.1549,0,U,24278,999,47298,.45763049E-4,.13E-6,0
TECHSAT 1B (GO-32),1998-043D,2026-06-16T05:18:55.343232,14.24428195,.0001002,99.0067,159.9557,165.2007,194.9200,0,U,25397,999,45119,.3314149E-4,.3E-6,0
ISS (ZARYA),1998-067A,2026-06-16T02:13:48.364032,15.49253146,.00048059,51.6337,305.5091,191.3253,168.7628,0,U,25544,999,57158,.14354606E-3,.7536E-4,0
PCSAT (NO-44),2001-043C,2026-06-16T07:42:29.103552,14.31955843,.00060753,67.0506,246.5117,264.6172,95.4237,0,U,26931,999,29032,.59468743E-4,.76E-6,0
SAUDISAT 1C (SO-50),2002-058C,2026-06-16T06:41:17.643552,14.83045303,.00752794,64.5510,131.7962,262.6422,96.6125,0,U,27607,999,26432,.11840739E-3,.856E-5,0
CUTE-1 (CO-55),2003-031E,2026-06-16T06:20:48.283872,14.24335232,.00094679,98.6736,175.8349,180.6624,179.4544,0,U,27844,999,19154,.12106764E-3,.236E-5,0
CUBESAT XI-IV (CO-57),2003-031J,2026-06-15T23:18:41.130432,14.23620242,.00089443,98.6765,175.2591,200.7616,159.3200,0,U,27848,999,19120,.10701839E-3,.2E-5,0
MOZHAETS 4 (RS22),2003-042A,2026-06-16T08:10:36.155136,14.73465031,.00099349,98.3462,351.6754,272.8490,208.6737,0,U,27939,999,21542,.75630017E-4,.437E-5,0
CUBESAT XI-V,2005-043F,2026-06-15T21:47:12.547104,14.72628612,.0013554,98.2984,322.5028,204.9214,155.1340,0,U,28895,999,10156,.19838E-3,.1212E-4,0
CUTE-1.7+APD II (CO-65),2008-021C,2026-06-16T06:06:21.195072,15.09444415,.00098828,97.8271,148.6535,42.0213,318.1772,0,U,32785,999,98505,.24216284E-3,.3812E-4,0
SEEDS II (CO-66),2008-021J,2026-06-15T23:03:02.222496,15.32715926,.00012258,97.7511,164.7995,8.5431,351.5831,0,U,32791,999,98710,.47997359E-3,.15094E-3,0
YUBILEINY (RS30),2008-025A,2026-06-16T07:02:54.113568,12.43179662,.00188996,82.5038,355.9964,315.9355,44.0218,0,U,32953,999,81958,.58838545E-3,.92E-6,0
KKS-1 (KISEKI),2009-002H,2026-06-16T07:29:22.976736,14.83122279,.00065846,98.1190,89.7405,299.3128,60.7427,0,U,33499,999,93606,.14878073E-3,.1157E-4,0
SWISSCUBE,2009-051B,2026-06-16T06:42:05.863392,14.62480239,.00058983,98.4037,75.1516,206.1840,153.9064,0,U,35932,999,88902,.17480141E-3,.836E-5,0
BEESAT-1,2009-051C,2026-06-16T06:55:00.230304,14.61719271,.00041728,98.3965,74.7982,220.4264,139.6627,0,U,35933,999,88905,.14946323E-3,.696E-5,0
ITUPSAT1,2009-051E,2026-06-16T06:40:45.113088,14.60439597,.00062273,98.4049,73.9810,237.3413,122.7187,0,U,35935,999,88860,.14314844E-3,.645E-5,0
XIWANG-1 (HOPE-1),2009-072B,2026-06-16T06:08:29.220000,13.16437719,.00068583,100.4025,121.1031,234.0890,125.9587,0,U,36122,999,79288,-.70649809E-3,-.314E-5,0
O/OREOS (USA 219),2010-062C,2026-06-16T04:35:54.922560,14.93741110,.00125321,71.9714,82.5947,65.2237,295.0236,0,U,37224,999,11649,.18866144E-3,.1939E-4,0
JUGNU,2011-058B,2026-06-16T02:50:42.503136,14.13776503,.00186362,19.9617,314.9218,64.4642,109.1077,0,U,37839,999,75887,.69481526E-4,.4E-5,0
SRMSAT,2011-058D,2026-06-16T02:03:38.583936,14.11575350,.0011815,19.9722,66.1331,191.4739,210.8496,0,U,37841,999,75766,.48744584E-4,.355E-5,0
STRAND-1,2013-009E,2026-06-16T05:17:35.231424,14.37162791,.00076806,98.3921,347.4787,228.5958,131.4569,0,U,39090,999,69692,.88131644E-4,.219E-5,0
ZACUBE-1 (TSHEPISOSAT),2013-066B,2026-06-16T03:22:47.852832,15.01184047,.00406891,97.8082,129.4722,251.3313,108.3491,0,U,39417,999,68057,.21090228E-3,.2688E-4,0
GOMX-1,2013-066Q,2026-06-16T07:13:05.035008,14.69457255,.01301785,97.6477,7.8198,80.3496,281.2389,0,U,39430,999,66978,.23141286E-3,.1511E-4,0
